{"type": "FeatureCollection", "features": [ {"type": "Feature", "properties": {"norad_id": 31768, "name": "FENGYUN 1C DEB", "group": "fengyun-1c-debris", "lat": -77.98896630855684, "lon": 117.16595819802353, "alt_km": 633.3779985639294, "timestamp": "2025-12-20T20:38:44.726665+00:00", "meta": {"OBJECT_NAME": "FENGYUN 1C DEB", "OBJECT_ID": "1999-025CFT", "EPOCH": "2025-12-17T03:41:39.457824", "MEAN_MOTION": 14.76295043, "ECCENTRICITY": 0.0026336, "INCLINATION": 99.0434, "RA_OF_ASC_NODE": 64.5525, "ARG_OF_PERICENTER": 327.1784, "MEAN_ANOMALY": 64.0625, "EPHEMERIS_TYPE": 0, "CLASSIFICATION_TYPE": "U", "NORAD_CAT_ID": 31768, "ELEMENT_SET_NO": 999, "REV_AT_EPOCH": 96938, "BSTAR": 0.0019554055, "MEAN_MOTION_DOT": 0.00013594, "MEAN_MOTION_DDOT": 0}, "tle": {"line1": "1 31768U 99025CFT 25351.15392891  .00013594  00000+0  19554-2 0  9991", "line2": "2 31768  99.0434  64.5525 0026336 327.1784  64.0625 14.76295043969384"}}, "geometry": {"type": "Point", "coordinates": [117.16595819802353, -77.98896630855684]}}, {"type": "Feature", "properties": {"norad_id": 31772, "name": "FENGYUN 1C DEB", "group": "fengyun-1c-debris", "lat": -59.64076811464517, "lon": -73.38949410010827, "alt_km": 947.1754826435654, "timestamp": "2025-12-20T20:38:44.726675+00:00", "meta": {"OBJECT_NAME": "FENGYUN 1C DEB", "OBJECT_ID": "1999-025CFX", "EPOCH": "2025-12-19T17:43:14.621952", "MEAN_MOTION": 14.11723305, "ECCENTRICITY": 0.01370779, "INCLINATION": 98.4735, "RA_OF_ASC_NODE": 270.8063, "ARG_OF_PERICENTER": 93.7735, "MEAN_ANOMALY": 267.9123, "EPHEMERIS_TYPE": 0, "CLASSIFICATION_TYPE": "U", "NORAD_CAT_ID": 31772, "ELEMENT_SET_NO": 999, "REV_AT_EPOCH": 70982, "BSTAR": 0.00069177728, "MEAN_MOTION_DOT": 1.337e-05, "MEAN_MOTION_DDOT": 0}, "tle": {"line1": "1 31772U 99025CFX 25353.73836368  .00001337  00000+0  69178-3 0  9994", "line2": "2 31772  98.4735 270.8063 0137077  93.7735 267.9123 14.11723305709826"}}, "geometry": {"type": "Point", "coordinates": [-73.38949410010827, -59.64076811464517]}}, {"type": "Feature", "properties": {"norad_id": 31773, "name": "FENGYUN 1C DEB", "group": "fengyun-1c-debris", "lat": 2.6821009667852453, "lon": -13.822024173251695, "alt_km": 678.0596666458923, "timestamp": "2025-12-20T20:38:44.726685+00:00", "meta": {"OBJECT_NAME": "FENGYUN 1C DEB", "OBJECT_ID": "1999-025CFY", "EPOCH": "2025-12-16T05:46:16.244256", "MEAN_MOTION": 14.72930544, "ECCENTRICITY": 0.00393572, "INCLINATION": 98.949, "RA_OF_ASC_NODE": 341.5146, "ARG_OF_PERICENTER": 167.345, "MEAN_ANOMALY": 192.8752, "EPHEMERIS_TYPE": 0, "CLASSIFICATION_TYPE": "U", "NORAD_CAT_ID": 31773, "ELEMENT_SET_NO": 999, "REV_AT_EPOCH": 65226, "BSTAR": 0.0012966409, "MEAN_MOTION_DOT": 8.364e-05, "MEAN_MOTION_DDOT": 0}, "tle": {"line1": "1 31773U 99025CFY 25350.24046579  .00008364  00000+0  12966-2 0  9994", "line2": "2 31773  98.9490 341.5146 0039357 167.3450 192.8752 14.72930544652263"}}, "geometry": {"type": "Point", "coordinates": [-13.822024173251695, 2.6821009667852453]}}, {"type": "Feature", "properties": {"norad_id": 31776, "name": "FENGYUN 1C DEB", "group": "fengyun-1c-debris", "lat": -67.51481669389798, "lon": 77.50648727390445, "alt_km": 800.7104690869564, "timestamp": "2025-12-20T20:38:44.726695+00:00", "meta": {"OBJECT_NAME": "FENGYUN 1C DEB", "OBJECT_ID": "1999-025CGB", "EPOCH": "2025-12-17T10:20:15.158400", "MEAN_MOTION": 14.18576504, "ECCENTRICITY": 0.00542331, "INCLINATION": 99.0756, "RA_OF_ASC_NODE": 51.2828, "ARG_OF_PERICENTER": 321.0516, "MEAN_ANOMALY": 105.4475, "EPHEMERIS_TYPE": 0, "CLASSIFICATION_TYPE": "U", "NORAD_CAT_ID": 31776, "ELEMENT_SET_NO": 999, "REV_AT_EPOCH": 94947, "BSTAR": 0.0010653366, "MEAN_MOTION_DOT": 2.191e-05, "MEAN_MOTION_DDOT": 0}, "tle": {"line1": "1 31776U 99025CGB 25351.43073100  .00002191  00000+0  10653-2 0  9992", "line2": "2 31776  99.0756  51.2828 0054233 321.0516 105.4475 14.18576504949473"}}, "geometry": {"type": "Point", "coordinates": [77.50648727390445, -67.51481669389798]}}, {"type": "Feature", "properties": {"norad_id": 31779, "name": "FENGYUN 1C DEB", "group": "fengyun-1c-debris", "lat": -6.49521790819236, "lon": 94.48167816142697, "alt_km": 620.9432268874489, "timestamp": "2025-12-20T20:38:44.726706+00:00", "meta": {"OBJECT_NAME": "FENGYUN 1C DEB", "OBJECT_ID": "1999-025CGE", "EPOCH": "2025-12-20T13:07:46.724448", "MEAN_MOTION": 14.41612156, "ECCENTRICITY": 0.02136066, "INCLINATION": 99.2992, "RA_OF_ASC_NODE": 275.2096, "ARG_OF_PERICENTER": 159.9975, "MEAN_ANOMALY": 200.9747, "EPHEMERIS_TYPE": 0, "CLASSIFICATION_TYPE": "U", "NORAD_CAT_ID": 31779, "ELEMENT_SET_NO": 999, "REV_AT_EPOCH": 97122, "BSTAR": 0.0001567755, "MEAN_MOTION_DOT": 6.08e-06, "MEAN_MOTION_DDOT": 0}, "tle": {"line1": "1 31779U 99025CGE 25354.54706857  .00000608  00000+0  15678-3 0  9996", "line2": "2 31779  99.2992 275.2096 0213606 159.9975 200.9747 14.41612156971224"}}, "geometry": {"type": "Point", "coordinates": [94.48167816142697, -6.49521790819236]}}, {"type": "Feature", "properties": {"norad_id": 31780, "name": "FENGYUN 1C DEB", "group": "fengyun-1c-debris", "lat": -59.882334823124026, "lon": -47.779868082789854, "alt_km": 758.2035960986132, "timestamp": "2025-12-20T20:38:44.726716+00:00", "meta": {"OBJECT_NAME": "FENGYUN 1C DEB", "OBJECT_ID": "1999-025CGF", "EPOCH": "2025-12-19T09:14:08.893824", "MEAN_MOTION": 14.69562649, "ECCENTRICITY": 0.0150519, "INCLINATION": 99.2856, "RA_OF_ASC_NODE": 146.9253, "ARG_OF_PERICENTER": 32.9124, "MEAN_ANOMALY": 328.1341, "EPHEMERIS_TYPE": 0, "CLASSIFICATION_TYPE": "U", "NORAD_CAT_ID": 31780, "ELEMENT_SET_NO": 999, "REV_AT_EPOCH": 98595, "BSTAR": 0.00017735, "MEAN_MOTION_DOT": 1.179e-05, "MEAN_MOTION_DDOT": 0}, "tle": {"line1": "1 31780U 99025CGF 25353.38482516  .00001179  00000+0  17735-3 0  9992", "line2": "2 31780  99.2856 146.9253 0150519  32.9124 328.1341 14.69562649985952"}}, "geometry": {"type": "Point", "coordinates": [-47.779868082789854, -59.882334823124026]}}, {"type": "Feature", "properties": {"norad_id": 31781, "name": "FENGYUN 1C DEB", "group": "fengyun-1c-debris", "lat": 21.375914883379505, "lon": -9.985123809978347, "alt_km": 853.7039436614277, "timestamp": "2025-12-20T20:38:44.726726+00:00", "meta": {"OBJECT_NAME": "FENGYUN 1C DEB", "OBJECT_ID": "1999-025CGG", "EPOCH": "2025-12-19T18:23:15.038592", "MEAN_MOTION": 14.13066049, "ECCENTRICITY": 0.02036338, "INCLINATION": 99.4964, "RA_OF_ASC_NODE": 165.0977, "ARG_OF_PERICENTER": 254.3992, "MEAN_ANOMALY": 103.4621, "EPHEMERIS_TYPE": 0, "CLASSIFICATION_TYPE": "U", "NORAD_CAT_ID": 31781, "ELEMENT_SET_NO": 999, "REV_AT_EPOCH": 68447, "BSTAR": 0.002513497, "MEAN_MOTION_DOT": 5.669e-05, "MEAN_MOTION_DDOT": 0}, "tle": {"line1": "1 31781U 99025CGG 25353.76614628  .00005669  00000+0  25135-2 0  9996", "line2": "2 31781  99.4964 165.0977 0203633 254.3992 103.4621 14.13066049684479"}}, "geometry": {"type": "Point", "coordinates": [-9.985123809978347, 21.375914883379505]}}, {"type": "Feature", "properties": {"norad_id": 31782, "name": "FENGYUN 1C DEB", "group": "fengyun-1c-debris", "lat": -37.616867218852, "lon": -30.61795384690958, "alt_km": 800.8104690909522, "timestamp": "2025-12-20T20:38:44.726736+00:00", "meta": {"OBJECT_NAME": "FENGYUN 1C DEB", "OBJECT_ID": "1999-025CGH", "EPOCH": "2025-12-20T05:25:03.355392", "MEAN_MOTION": 14.36249202, "ECCENTRICITY": 0.007919, "INCLINATION": 98.9043, "RA_OF_ASC_NODE": 155.6652, "ARG_OF_PERICENTER": 334.9049, "MEAN_ANOMALY": 205.1294, "EPHEMERIS_TYPE": 0, "CLASSIFICATION_TYPE": "U", "NORAD_CAT_ID": 31782, "ELEMENT_SET_NO": 999, "REV_AT_EPOCH": 96798, "BSTAR": 0.00026736, "MEAN_MOTION_DOT": 7.61e-06, "MEAN_MOTION_DDOT": 0}, "tle": {"line1": "1 31782U 99025CGH 25354.22573328  .00000761  00000+0  26736-3 0  9997", "line2": "2 31782  98.9043 155.6652 0079190 334.9049 205.1294 14.36249202967989"}}, "geometry": {"type": "Point", "coordinates": [-30.61795384690958, -37.616867218852]}}, {"type": "Feature", "properties": {"norad_id": 31783, "name": "FENGYUN 1C DEB", "group": "fengyun-1c-debris", "lat": 36.859933861893744, "lon": -3.366422416874301, "alt_km": 786.5515527370662, "timestamp": "2025-12-20T20:38:44.726747+00:00", "meta": {"OBJECT_NAME": "FENGYUN 1C DEB", "OBJECT_ID": "1999-025CGJ", "EPOCH": "2025-12-20T06:53:25.982592", "MEAN_MOTION": 14.08842598, "ECCENTRICITY": 0.01039748, "INCLINATION": 98.6049, "RA_OF_ASC_NODE": 2.6048, "ARG_OF_PERICENTER": 28.7009, "MEAN_ANOMALY": 343.3126, "EPHEMERIS_TYPE": 0, "CLASSIFICATION_TYPE": "U", "NORAD_CAT_ID": 31783, "ELEMENT_SET_NO": 999, "REV_AT_EPOCH": 89327, "BSTAR": 0.00037929066, "MEAN_MOTION_DOT": 6.47e-06, "MEAN_MOTION_DDOT": 0}, "tle": {"line1": "1 31783U 99025CGJ 25354.28710628  .00000647  00000+0  37929-3 0  9999", "line2": "2 31783  98.6049   2.6048 0103974  28.7009 343.3126 14.08842598893270"}}, "geometry": {"type": "Point", "coordinates": [-3.366422416874301, 36.859933861893744]}}, {"type": "Feature", "properties": {"norad_id": 31788, "name": "FENGYUN 1C DEB", "group": "fengyun-1c-debris", "lat": -7.187366501243783, "lon": 141.48786866713232, "alt_km": 995.8832485331204, "timestamp": "2025-12-20T20:38:44.726757+00:00", "meta": {"OBJECT_NAME": "FENGYUN 1C DEB", "OBJECT_ID": "1999-025CGP", "EPOCH": "2025-12-19T16:12:03.386880", "MEAN_MOTION": 13.45122143, "ECCENTRICITY": 0.0461749, "INCLINATION": 102.5553, "RA_OF_ASC_NODE": 138.3955, "ARG_OF_PERICENTER": 71.4155, "MEAN_ANOMALY": 309.761, "EPHEMERIS_TYPE": 0, "CLASSIFICATION_TYPE": "U", "NORAD_CAT_ID": 31788, "ELEMENT_SET_NO": 999, "REV_AT_EPOCH": 90698, "BSTAR": 0.001479, "MEAN_MOTION_DOT": 1.6e-05, "MEAN_MOTION_DDOT": 0}, "tle": {"line1": "1 31788U 99025CGP 25353.67503920  .00001600  00000+0  14790-2 0  9991", "line2": "2 31788 102.5553 138.3955 0461749  71.4155 309.7610 13.45122143906982"}}, "geometry": {"type": "Point", "coordinates": [141.48786866713232, -7.187366501243783]}}]}